OBJECT_NAME,OBJECT_ID,EPOCH,MEAN_MOTION,ECCENTRICITY,INCLINATION,RA_OF_ASC_NODE,ARG_OF_PERICENTER,MEAN_ANOMALY,EPHEMERIS_TYPE,CLASSIFICATION_TYPE,NORAD_CAT_ID,ELEMENT_SET_NO,REV_AT_EPOCH,BSTAR,MEAN_MOTION_DOT,MEAN_MOTION_DDOT
SIRION PATHFINDER-2,2018-099B,2026-06-14T01:50:11.816160,15.14524392,.0007431,97.4257,214.2077,317.9791,42.0871,0,U,43759,999,41215,.28364E-3,.5164E-4,0
CORVUS BC4,2018-099K,2026-06-14T01:53:34.986624,15.12472471,.00086,97.4066,208.1499,23.1106,337.0510,0,U,43767,999,41193,.27274E-3,.4685E-4,0
M2 PATHFINDER,2020-037E,2026-06-14T01:18:12.265632,15.04666111,.0012267,97.8152,356.2511,155.7266,204.4540,0,U,45727,999,32502,.16138E-3,.2208E-4,0
NETSAT-4,2020-068U,2026-06-14T00:19:37.060896,15.43769730,.0004225,97.8597,172.9993,352.2607,7.8574,0,U,46504,999,31528,.40138E-3,.1808E-3,0
NETSAT-3,2020-068V,2026-06-14T00:25:08.294304,15.42578599,.0004652,97.8647,171.2238,13.3855,346.7514,0,U,46505,999,31519,.43846E-3,.18987E-3,0
NETSAT-1,2020-068W,2026-06-13T22:34:09.632064,15.34574399,.0005392,97.8740,165.5101,41.9562,318.2092,0,U,46506,999,31480,.3911E-3,.13027E-3,0
NETSAT-2,2020-068X,2026-06-13T23:50:21.204672,15.45873896,.0003876,97.8610,172.8604,36.0502,324.1006,0,U,46507,999,31524,.50153E-3,.24311E-3,0
GREENCUBE (IO-117),2022-080E,2026-06-13T07:02:28.697280,6.42583230,.00089108,70.1444,299.5995,290.4576,69.5127,0,U,53109,999,9181,0,-.3E-7,0
SITRO-AIS 5 (KATYS),2023-091L,2026-06-14T04:35:23.171424,15.29396221,.0012769,97.5067,229.0619,112.7229,247.5362,0,U,57176,999,16388,.46213E-3,.13137E-3,0
SITRO-AIS 6 (CHIRKIN),2023-091AC,2026-06-14T03:55:07.948416,15.25884331,.0013113,97.5076,228.1688,115.7032,244.5561,0,U,57192,999,16382,.39819E-3,.10158E-3,0
SITRO-AIS 8 (ANOKHIN),2023-091AD,2026-06-14T03:33:22.588704,15.32063028,.0011816,97.5064,230.5947,109.2566,250.9954,0,U,57193,999,16398,.50611E-3,.15635E-3,0
SITRO-AIS 7 (FARTUSHNIY),2023-091AE,2026-06-14T03:58:46.726176,15.25573105,.0012957,97.5073,227.9979,116.5906,243.6661,0,U,57194,999,16381,.39139E-3,.9889E-4,0
SITRO-AIS 10 (BURDAEV),2023-091AK,2026-06-14T04:37:10.463808,15.38511933,.0007673,97.5089,235.6629,88.9460,271.2664,0,U,57199,999,16430,.53544E-3,.20313E-3,0
SITRO-AIS 9 (SHCHUKIN),2023-091AM,2026-06-14T03:40:07.949856,15.38022660,.0007934,97.5088,235.3547,89.2639,270.9514,0,U,57201,999,16428,.56184E-3,.20986E-3,0
SITRO-AIS 12 (SMIRENNIY),2023-091AQ,2026-06-14T03:27:27.423360,15.38313153,.0007482,97.5100,235.8112,84.3506,275.8591,0,U,57204,999,16430,.60214E-3,.22713E-3,0
SITRO-AIS 11 (SHEFFER),2023-091AU,2026-06-14T03:47:58.912800,15.38736565,.0007359,97.5098,236.0703,84.2329,275.9755,0,U,57208,999,16432,.55386E-3,.2117E-3,0
SITRO-AIS 25,2024-039R,2026-06-14T05:27:11.676672,14.93500721,.0143857,95.3912,233.0584,339.2136,20.3275,0,U,59066,999,12428,.18395E-3,.2337E-4,0
SITRO-AIS 26,2024-039S,2026-06-14T03:52:05.875104,14.93297202,.0144194,95.3914,232.9113,340.0180,19.5432,0,U,59067,999,12426,.20201E-3,.2559E-4,0
SITRO-AIS 27,2024-039T,2026-06-14T04:46:56.675712,14.93716417,.0143138,95.3917,233.2076,338.4988,21.0262,0,U,59068,999,12429,.25412E-3,.3256E-4,0
SITRO-AIS 28,2024-039U,2026-06-14T04:14:33.271008,14.93748817,.0143088,95.3915,233.2393,338.3917,21.1307,0,U,59071,999,12429,.22979E-3,.2943E-4,0
GRBBETA,2024-128C,2026-06-13T21:38:19.161024,15.06620638,.0041064,61.9894,227.7936,133.9799,226.4693,0,U,60237,999,10577,.24477E-3,.3495E-4,0
OOV-CUBE (TUBSAT-30),2024-128F,2026-06-13T22:16:30.374976,15.02762484,.0045036,61.9948,236.9373,132.9755,227.5126,0,U,60240,999,10562,.17165E-3,.2141E-4,0
ROBUSTA-3A (MEDITERRANEE),2024-128J,2026-06-13T21:26:48.247872,15.11644949,.0041692,61.9858,219.8918,127.5356,232.9540,0,U,60243,999,10592,.39533E-3,.6674E-4,0
LASARSAT,2024-247Q,2026-06-13T14:48:20.082240,15.46168743,.0008375,44.9751,282.2745,311.5212,48.4959,0,U,62391,999,8276,.65515E-3,.32689E-3,0
CROCUBE,2024-247T,2026-06-13T17:57:18.051840,15.48041306,.00082044,44.9723,278.9259,315.9203,44.1032,0,U,62394,999,8281,.72514081E-3,.38699E-3,0
FORESAIL-1 PRIME,2025-276DS,2026-06-14T03:55:15.060000,15.18676939,.0003913,97.4203,238.4891,109.6955,250.4701,0,U,66778,999,2994,.24279E-3,.4967E-4,0
KNACKSAT-2,1998-067XZ,2026-06-13T16:46:10.211520,15.59677165,.00096113,51.6303,312.0209,199.6131,160.4494,0,U,67683,999,1973,.57858406E-3,.46958E-3,0
