SIRION PATHFINDER-2     
1 43759U 18099B   26165.07652565  .00005164  00000+0  28364-3 0  9992
2 43759  97.4257 214.2077 0007431 317.9791  42.0871 15.14524392412150
CORVUS BC4              
1 43767U 18099K   26165.07887716  .00004685  00000+0  27274-3 0  9995
2 43767  97.4066 208.1499 0008600  23.1106 337.0510 15.12472471411932
M2 PATHFINDER           
1 45727U 20037E   26165.05430863  .00002208  00000+0  16138-3 0  9999
2 45727  97.8152 356.2511 0012267 155.7266 204.4540 15.04666111325024
NETSAT-4                
1 46504U 20068U   26165.01362339  .00018080  00000+0  40138-3 0  9997
2 46504  97.8597 172.9993 0004225 352.2607   7.8574 15.43769730315289
NETSAT-3                
1 46505U 20068V   26165.01745711  .00018987  00000+0  43846-3 0  9992
2 46505  97.8647 171.2238 0004652  13.3855 346.7514 15.42578599315193
NETSAT-1                
1 46506U 20068W   26164.94038926  .00013027  00000+0  39110-3 0  9996
2 46506  97.8740 165.5101 0005392  41.9562 318.2092 15.34574399314804
NETSAT-2                
1 46507U 20068X   26164.99330098  .00024311  00000+0  50153-3 0  9995
2 46507  97.8610 172.8604 0003876  36.0502 324.1006 15.45873896315240
GREENCUBE (IO-117)      
1 53109U 22080E   26164.29338770 -.00000003  00000+0  00000+0 0  9990
2 53109  70.1444 299.5995 0008910 290.4576  69.5127  6.42583230 91811
SITRO-AIS 5 (KATYS)     
1 57176U 23091L   26165.19124041  .00013137  00000+0  46213-3 0  9996
2 57176  97.5067 229.0619 0012769 112.7229 247.5362 15.29396221163885
SITRO-AIS 6 (CHIRKIN)   
1 57192U 23091AC  26165.16328644  .00010158  00000+0  39819-3 0  9990
2 57192  97.5076 228.1688 0013113 115.7032 244.5561 15.25884331163820
SITRO-AIS 8 (ANOKHIN)   
1 57193U 23091AD  26165.14817811  .00015635  00000+0  50611-3 0  9996
2 57193  97.5064 230.5947 0011816 109.2566 250.9954 15.32063028163985
SITRO-AIS 7 (FARTUSHNIY)
1 57194U 23091AE  26165.16581859  .00009889  00000+0  39139-3 0  9995
2 57194  97.5073 227.9979 0012957 116.5906 243.6661 15.25573105163817
SITRO-AIS 10 (BURDAEV)  
1 57199U 23091AK  26165.19248222  .00020313  00000+0  53544-3 0  9998
2 57199  97.5089 235.6629 0007673  88.9460 271.2664 15.38511933164303
SITRO-AIS 9 (SHCHUKIN)  
1 57201U 23091AM  26165.15286979  .00020986  00000+0  56184-3 0  9998
2 57201  97.5088 235.3547 0007934  89.2639 270.9514 15.38022660164285
SITRO-AIS 12 (SMIRENNIY)
1 57204U 23091AQ  26165.14406740  .00022713  00000+0  60214-3 0  9999
2 57204  97.5100 235.8112 0007482  84.3506 275.8591 15.38313153164305
SITRO-AIS 11 (SHEFFER)  
1 57208U 23091AU  26165.15832075  .00021170  00000+0  55386-3 0  9998
2 57208  97.5098 236.0703 0007359  84.2329 275.9755 15.38736565164320
SITRO-AIS 25            
1 59066U 24039R   26165.22721848  .00002337  00000+0  18395-3 0  9991
2 59066  95.3912 233.0584 0143857 339.2136  20.3275 14.93500721124285
SITRO-AIS 26            
1 59067U 24039S   26165.16117911  .00002559  00000+0  20201-3 0  9990
2 59067  95.3914 232.9113 0144194 340.0180  19.5432 14.93297202124268
SITRO-AIS 27            
1 59068U 24039T   26165.19926708  .00003256  00000+0  25412-3 0  9990
2 59068  95.3917 233.2076 0143138 338.4988  21.0262 14.93716417124294
SITRO-AIS 28            
1 59071U 24039U   26165.17677397  .00002943  00000+0  22979-3 0  9996
2 59071  95.3915 233.2393 0143088 338.3917  21.1307 14.93748817124293
GRBBETA                 
1 60237U 24128C   26164.90161066  .00003495  00000+0  24477-3 0  9990
2 60237  61.9894 227.7936 0041064 133.9799 226.4693 15.06620638105778
OOV-CUBE (TUBSAT-30)    
1 60240U 24128F   26164.92812934  .00002141  00000+0  17165-3 0  9996
2 60240  61.9948 236.9373 0045036 132.9755 227.5126 15.02762484105622
ROBUSTA-3A (MEDITERRAN*)
1 60243U 24128J   26164.89361398  .00006674  00000+0  39533-3 0  9996
2 60243  61.9858 219.8918 0041692 127.5356 232.9540 15.11644949105929
LASARSAT                
1 62391U 24247Q   26164.61689910  .00032689  00000+0  65515-3 0  9991
2 62391  44.9751 282.2745 0008375 311.5212  48.4959 15.46168743 82768
CROCUBE                 
1 62394U 24247T   26164.74812560  .00038699  00000+0  72514-3 0  9991
2 62394  44.9723 278.9259 0008204 315.9203  44.1032 15.48041306 82819
FORESAIL-1 PRIME        
1 66778U 25276DS  26165.16336875  .00004967  00000+0  24279-3 0  9997
2 66778  97.4203 238.4891 0003913 109.6955 250.4701 15.18676939 29945
KNACKSAT-2              
1 67683U 98067XZ  26164.69872930  .00046958  00000+0  57858-3 0  9990
2 67683  51.6303 312.0209 0009611 199.6131 160.4494 15.59677165 19734
